<html><head>
    <!-- Global Site Tag (gtag.js) - Google Analytics -->
    <script async="" src="https://www.googletagmanager.com/gtag/js?id=UA-16769500-4"></script>
    <script>
        window.dataLayer = window.dataLayer || [];
        function gtag(){dataLayer.push(arguments)};
        gtag('js', new Date());

        gtag('config', 'UA-16769500-4');
    </script>
    <meta http-equiv="Pragma" content="no-cache">
    <meta http-equiv="refresh" content="3600">
    <title>Sandy Bay Airport (CJY4)</title>
    <style>
        p {white-space: nowrap;}
    </style>
    <link rel="stylesheet" type="text/css" href="chrome-extension://nffaoalbilbmmfgbnbgppjihopabppdk/src/styles/inject.css"><script src="chrome-extension://nffaoalbilbmmfgbnbgppjihopabppdk/src/utils/constants.js"></script><div id="vsc-constants-loaded" style="display: none;">Constants loaded at 2025-07-25T01:38:19.543Z</div><script src="chrome-extension://nffaoalbilbmmfgbnbgppjihopabppdk/src/utils/logger.js"></script><script src="chrome-extension://nffaoalbilbmmfgbnbgppjihopabppdk/src/utils/debug-helper.js"></script><script src="chrome-extension://nffaoalbilbmmfgbnbgppjihopabppdk/src/utils/dom-utils.js"></script><script src="chrome-extension://nffaoalbilbmmfgbnbgppjihopabppdk/src/utils/event-manager.js"></script><script src="chrome-extension://nffaoalbilbmmfgbnbgppjihopabppdk/src/core/storage-manager.js"></script><script src="chrome-extension://nffaoalbilbmmfgbnbgppjihopabppdk/src/core/settings.js"></script><script src="chrome-extension://nffaoalbilbmmfgbnbgppjihopabppdk/src/observers/media-observer.js"></script><script src="chrome-extension://nffaoalbilbmmfgbnbgppjihopabppdk/src/observers/mutation-observer.js"></script><script src="chrome-extension://nffaoalbilbmmfgbnbgppjihopabppdk/src/core/action-handler.js"></script><script src="chrome-extension://nffaoalbilbmmfgbnbgppjihopabppdk/src/core/video-controller.js"></script><script src="chrome-extension://nffaoalbilbmmfgbnbgppjihopabppdk/src/ui/controls.js"></script><script src="chrome-extension://nffaoalbilbmmfgbnbgppjihopabppdk/src/ui/drag-handler.js"></script><script src="chrome-extension://nffaoalbilbmmfgbnbgppjihopabppdk/src/ui/shadow-dom.js"></script><script src="chrome-extension://nffaoalbilbmmfgbnbgppjihopabppdk/src/site-handlers/base-handler.js"></script><script src="chrome-extension://nffaoalbilbmmfgbnbgppjihopabppdk/src/site-handlers/netflix-handler.js"></script><script src="chrome-extension://nffaoalbilbmmfgbnbgppjihopabppdk/src/site-handlers/youtube-handler.js"></script><script src="chrome-extension://nffaoalbilbmmfgbnbgppjihopabppdk/src/site-handlers/facebook-handler.js"></script><script src="chrome-extension://nffaoalbilbmmfgbnbgppjihopabppdk/src/site-handlers/amazon-handler.js"></script><script src="chrome-extension://nffaoalbilbmmfgbnbgppjihopabppdk/src/site-handlers/apple-handler.js"></script><script src="chrome-extension://nffaoalbilbmmfgbnbgppjihopabppdk/src/site-handlers/index.js"></script><script src="chrome-extension://nffaoalbilbmmfgbnbgppjihopabppdk/src/content/inject.js"></script><div id="vsc-test-indicator" style="display: none;"></div></head>
<body bgcolor="white" class="vsc-domain-highways-glmobile-com vsc-initialized">
<font face="Arial,Helvetica,Verdana" size="-1">
    <h1>Sandy Bay Airport (CJY4)</h1>
    <p><i>Automated weather provided by Saskatchewan Ministry of Highways and is <b>ADVISORY ONLY</b></i></p>
    <p>

        <font size="2"><b>SPECI CJY4 250103Z AUTO 19006KT 170V240 1 1/2SM HZ NCD 23/06 A2980 RMK SLP096 DENSITY ALT 2274FT=

        </b></font><br><font size="2"><b>SPECI CJY4 250055Z AUTO 19005KT 160V220 1 1/2SM HZ FEW019 23/06 A2980 RMK SLP096 DENSITY ALT 2293FT=

    </b></font><br><font size="2"><b>SPECI CJY4 242356Z AUTO 20008KT 150V240 1 1/2SM HZ FEW018 24/06 A2980 RMK SLP097 DENSITY ALT 2419FT=

    </b></font><br><font size="2"><b>SPECI CJY4 242217Z AUTO 23005KT 180V280 3SM HZ NCD 26/05 A2983 RMK SLP101 DENSITY ALT 2557FT=

    </b></font><br><font size="2"><b>METAR CJY4 242200Z AUTO 21006KT 140V250 3SM HZ NCD 25/04 A2983 RMK SLP103 DENSITY ALT 2545FT=

    </b></font><br><font size="2"><b>METAR CJY4 242100Z AUTO 23004KT 2 1/4SM HZ NCD 25/05 A2983 RMK SLP107 DENSITY ALT 2504FT=

    </b></font><br>
    </p><p><br><img src="nophoto.jpg" border="0" width="480" height="270" alt="Photo Unavailable"><br></p><p><br><img src="nophoto.jpg" border="0" width="480" height="270" alt="Photo Unavailable"><br></p><p><br><img src="nophoto.jpg" border="0" width="480" height="270" alt="Photo Unavailable"><br></p><!-- <img src="ptz1.jpg">
        <img src="sandybay2.jpg">
        <img src="ptz3.jpg"><br> -->


    <p>
        <b><i><br>Camera positions/views are static.<br>
            These images refresh every 10 minutes.<br>
            <br>
            Local AWOS available on 122.550<br>
            <br>
            Saskatchewan Ministry of Highways<br>
        </i></b></p>
    <p></p>
    <p><font size="1"><i><br>Hosted by GL Mobile Communications</i></font></p>
    <p></p>


    <p></p>


</font></body></html>